[{"OBJECT_NAME":"SHARJAHSAT-1","OBJECT_ID":"2023-001CZ","EPOCH":"2026-03-09T23:14:03.954048","MEAN_MOTION":15.45313448,"ECCENTRICITY":0.00077056,"INCLINATION":97.3283,"RA_OF_ASC_NODE":136.581,"ARG_OF_PERICENTER":104.7034,"MEAN_ANOMALY":255.5069,"EPHEMERIS_TYPE":0,"CLASSIFICATION_TYPE":"U","NORAD_CAT_ID":55104,"ELEMENT_SET_NO":999,"REV_AT_EPOCH":17715,"BSTAR":0.00050352422,"MEAN_MOTION_DOT":0.00023971,"MEAN_MOTION_DDOT":0},{"OBJECT_NAME":"STARLINK-34003","OBJECT_ID":"2025-094U","EPOCH":"2026-03-09T17:01:34.865184","MEAN_MOTION":15.42711308,"ECCENTRICITY":0.00038112,"INCLINATION":70.0011,"RA_OF_ASC_NODE":205.2375,"ARG_OF_PERICENTER":288.4816,"MEAN_ANOMALY":71.5951,"EPHEMERIS_TYPE":0,"CLASSIFICATION_TYPE":"U","NORAD_CAT_ID":63882,"ELEMENT_SET_NO":999,"REV_AT_EPOCH":4793,"BSTAR":0.0018682176,"MEAN_MOTION_DOT":0.00082547,"MEAN_MOTION_DDOT":0}]
